    2.10           N: GPS NAV DATA                         RINEX VERSION / TYPE
Planning v4.11                          16-Jun-09 18:05     PGM / RUN BY / DATE
    +.5588D-08  +.1490D-07  -.5960D-07  -.1192D-06          ION ALPHA
    +.8397D+05  +.9830D+05  -.6554D+05  -.5243D+06          ION BETA
    +.931322574615D-09 +.177635683940D-14   405504     1536 DELTA-UTC: A0,A1,T,W
    15                                                      LEAP SECONDS
                                                            END OF HEADER       
24 09  6 16  3 59 44.0 +.197144690901D-03 +.295585778076D-11  .000000000000D+00
    +.180000000000D+02 +.624687500000D+02 +.496484966305D-08 -.988986277031D+00
    +.335462391376D-05 +.666507193819D-02 +.734999775887D-05 +.515367684174D+04
    +.187184000000D+06 -.242143869400D-07 -.720946255768D+00 -.484287738800D-07
    +.950566114483D+00 +.233375000000D+03 -.652148170669D+00 -.834820487910D-08
    +.571452374714D-10  .000000000000D+00 +.512000000000D+03  .000000000000D+00
     .000000000000D+00  .000000000000D+00 -.139698386192D-08 +.180000000000D+02
    +.187184000000D+06 +.400000000000D+01
12 09  6 16  4  0  0.0 -.265684444457D-03 +.579802872380D-11  .000000000000D+00
    +.860000000000D+02 -.400312500000D+02 +.472876840077D-08 +.135235728325D+01
    -.209733843803D-05 +.330861902330D-02 +.599399209023D-05 +.515363670921D+04
    +.187200000000D+06 +.577419996262D-07 -.286067079600D+01 -.260770320892D-07
    +.967406909958D+00 +.271437500000D+03 -.679236209897D+00 -.813105297671D-08
    +.457161899771D-10  .000000000000D+00 +.512000000000D+03  .000000000000D+00
     .000000000000D+00  .000000000000D+00 -.116415321827D-07 +.860000000000D+02
    +.187200000000D+06 +.400000000000D+01
31 09  6 16  4  0  0.0 -.623627565801D-04 -.568434188608D-12  .000000000000D+00
    +.300000000000D+02 +.101250000000D+02 +.420624663562D-08 +.115587428623D+01
    +.618398189545D-06 +.700878782663D-02 +.734627246857D-05 +.515372988701D+04
    +.187200000000D+06 +.726431608200D-07 +.236863002386D+01 -.180676579475D-06
    +.973069644942D+00 +.241593750000D+03 -.113700760523D+01 -.804140638542D-08
    +.470019578202D-09  .000000000000D+00 +.512000000000D+03  .000000000000D+00
     .000000000000D+00  .000000000000D+00 -.130385160446D-07 +.300000000000D+02
    +.187200000000D+06 +.400000000000D+01
21 09  6 16  3 59 44.0 +.811507925391D-05 -.216004991671D-11  .000000000000D+00
    +.260000000000D+02 +.640312500000D+02 +.537343811099D-08 +.370803545845D+00
    +.351108610630D-05 +.153901240556D-01 +.699423253536D-05 +.515360785484D+04
    +.187184000000D+06 +.540167093277D-07 -.753402604551D+00 +.271946191788D-06
    +.933911931763D+00 +.226500000000D+03 -.259215291547D+01 -.867607567909D-08
    -.885751180806D-10  .000000000000D+00 +.512000000000D+03  .000000000000D+00
     .000000000000D+00  .000000000000D+00 -.121071934700D-07 +.260000000000D+02
    +.187184000000D+06 +.400000000000D+01
29 09  6 16  4  0  0.0 +.305818393826D-04 +.375166564481D-11  .000000000000D+00
    +.600000000000D+02 -.101250000000D+02 +.478127058769D-08 +.373289977003D+00
    -.497326254845D-06 +.340449821670D-02 +.988133251667D-05 +.515366483688D+04
    +.187200000000D+06 -.186264514923D-07 -.179322228732D+01 +.260770320892D-07
    +.959632018240D+00 +.192281250000D+03 -.131446083659D+01 -.808033657845D-08
    -.896465912832D-10  .000000000000D+00 +.512000000000D+03  .000000000000D+00
     .000000000000D+00  .000000000000D+00 -.884756445885D-08 +.600000000000D+02
    +.187200000000D+06 +.400000000000D+01
30 09  6 16  4  0  0.0 +.154017470777D-03 +.272848410532D-11  .000000000000D+00
    +.290000000000D+02 -.377187500000D+02 +.511235580727D-08 -.120238259076D+01
    -.162795186043D-05 +.114960914943D-01 +.594742596149D-05 +.515357861900D+04
    +.187200000000D+06 -.707805156708D-07 -.290872974834D+01 +.236555933952D-06
    +.952484677416D+00 +.263937500000D+03 +.142085401015D+01 -.842320800328D-08
    +.960754304987D-10  .000000000000D+00 +.512000000000D+03  .000000000000D+00
     .000000000000D+00  .000000000000D+00 -.838190317154D-08 +.290000000000D+02
    +.187200000000D+06 +.400000000000D+01
16 09  6 16  4  0  0.0 +.415714457631D-04 -.341060513165D-11  .000000000000D+00
    +.200000000000D+02 -.428750000000D+02 +.468983820772D-08 -.109549133749D+01
    -.253878533840D-05 +.535748619586D-02 +.613927841187D-05 +.515355963516D+04
    +.187200000000D+06 -.130385160446D-07 -.284370119205D+01 -.633299350739D-07
    +.968839839680D+00 +.263531250000D+03 -.340472492263D+00 -.820105589261D-08
    +.126790995640D-09  .000000000000D+00 +.512000000000D+03  .000000000000D+00
     .000000000000D+00  .000000000000D+00 -.977888703346D-08 +.200000000000D+02
    +.187200000000D+06 +.400000000000D+01
10 09  6 16  4  0  0.0 -.175703316927D-04 -.568434188608D-12  .000000000000D+00
    +.490000000000D+02 +.115937500000D+02 +.460197740511D-08 -.229817937822D+01
    +.622123479843D-06 +.857117690612D-02 +.496394932270D-05 +.515362004280D+04
    +.187200000000D+06 +.614672899246D-07 +.299413741910D+00 -.912696123123D-07
    +.958351043282D+00 +.283125000000D+03 +.627096994707D+00 -.816605443466D-08
    -.156077929844D-09  .000000000000D+00 +.512000000000D+03  .000000000000D+00
     .000000000000D+00  .000000000000D+00 -.279396772385D-08 +.490000000000D+02
    +.187200000000D+06 +.400000000000D+01
18 09  6 16  4  0  0.0 -.478578731418D-04 +.318323145621D-11  .000000000000D+00
    +.960000000000D+02 +.396875000000D+01 +.510485549487D-08 -.907982965455D+00
    +.124797224998D-06 +.105139376828D-01 +.488199293613D-05 +.515359921074D+04
    +.187200000000D+06 +.204890966415D-06 +.304568177230D+00 +.165775418282D-06
    +.942387941600D+00 +.276406250000D+03 -.241684304635D+01 -.855499920720D-08
    -.351800368183D-09  .000000000000D+00 +.512000000000D+03  .000000000000D+00
     .000000000000D+00  .000000000000D+00 -.107102096081D-07 +.960000000000D+02
    +.187200000000D+06 +.400000000000D+01
22 09  6 16  4  0  0.0 +.197393354028D-03 -.682121026330D-12  .000000000000D+00
    +.520000000000D+02 +.415625000000D+01 +.504342436458D-08 -.193910355215D+01
    +.132247805595D-06 +.506415381096D-02 +.505521893501D-05 +.515365502548D+04
    +.187200000000D+06 +.115483999252D-06 +.310211775783D+00 -.353902578354D-07
    +.940051566338D+00 +.273250000000D+03 -.189080844241D+01 -.837820612877D-08
    -.332513850537D-09  .000000000000D+00 +.512000000000D+03  .000000000000D+00
     .000000000000D+00  .000000000000D+00 -.176951289177D-07 +.520000000000D+02
    +.187200000000D+06 +.400000000000D+01
 6 09  6 16  3 59 44.0 +.162418000400D-03 +.130739863380D-10  .000000000000D+00
    +.140000000000D+02 -.199687500000D+02 +.529343477853D-08 -.114232289863D+01
    -.105053186417D-05 +.599286344368D-02 +.103898346424D-04 +.515370363235D+04
    +.187184000000D+06 -.122934579849D-06 -.186525186629D+01 -.558793544769D-08
    +.933503509905D+00 +.167218750000D+03 -.134293819449D+01 -.838820654533D-08
    -.137505727665D-09  .000000000000D+00 +.512000000000D+03  .000000000000D+00
     .000000000000D+00  .000000000000D+00 -.465661287308D-08 +.140000000000D+02
    +.187184000000D+06 +.400000000000D+01
30 09  6 16  3 59 44.0 +.154020264745D-03 +.272848410532D-11  .000000000000D+00
    +.270000000000D+02 -.377187500000D+02 +.511199864955D-08 -.120471588658D+01
    -.162795186043D-05 +.114960867213D-01 +.594742596149D-05 +.515357861519D+04
    +.187184000000D+06 -.707805156708D-07 -.290872960936D+01 +.236555933952D-06
    +.952484664249D+00 +.263937500000D+03 +.142085345570D+01 -.842320800328D-08
    +.964325882329D-10  .000000000000D+00 +.512000000000D+03  .000000000000D+00
     .000000000000D+00  .000000000000D+00 -.838190317154D-08 +.270000000000D+02
    +.187184000000D+06 +.400000000000D+01